[{"OBJECT_NAME":"STARLINK-36430","OBJECT_ID":"2026-002X","EPOCH":"2026-03-09T02:25:27.034176","MEAN_MOTION":15.27585781,"ECCENTRICITY":0.00034264,"INCLINATION":43.0007,"RA_OF_ASC_NODE":328.1775,"ARG_OF_PERICENTER":244.167,"MEAN_ANOMALY":115.8829,"EPHEMERIS_TYPE":0,"CLASSIFICATION_TYPE":"U","NORAD_CAT_ID":67326,"ELEMENT_SET_NO":999,"REV_AT_EPOCH":1115,"BSTAR":0.0010713694,"MEAN_MOTION_DOT":0.00029345,"MEAN_MOTION_DDOT":0},{"OBJECT_NAME":"OKEAN-1","OBJECT_ID":"1988-056A","EPOCH":"2026-03-09T21:19:04.260000","MEAN_MOTION":15.31672069,"ECCENTRICITY":0.00129431,"INCLINATION":82.4671,"RA_OF_ASC_NODE":262.7586,"ARG_OF_PERICENTER":168.0696,"MEAN_ANOMALY":192.0855,"EPHEMERIS_TYPE":0,"CLASSIFICATION_TYPE":"U","NORAD_CAT_ID":19274,"ELEMENT_SET_NO":999,"REV_AT_EPOCH":3511,"BSTAR":0.00038371192,"MEAN_MOTION_DOT":0.00011798,"MEAN_MOTION_DDOT":0}]
